QIANFAN-57              
1 62787U 25016C   25324.23552337  .00000088  00000+0  11842-3 0  9994
2 62787  88.9767 105.5196 0001453 128.5862 231.5419 13.50980667 44164
QIANFAN-58              
1 62788U 25016D   25324.20669846  .00000108  00000+0  14890-3 0  9995
2 62788  88.9737 105.3612 0014970  53.4196 306.8331 13.50980497 44202
QIANFAN-59              
1 62789U 25016E   25324.30545290  .00000094  00000+0  12689-3 0  9991
2 62789  88.9760 105.4192 0015426  56.5369 303.7254 13.50979915 44210
QIANFAN-60              
1 62790U 25016F   25324.26450089  .00000042  00000+0  46451-4 0  9997
2 62790  88.9742 105.3993 0016872  53.0708 307.1985 13.50976764 44190
QIANFAN-61              
1 62791U 25016G   25324.29723107  .00000078  00000+0  10253-3 0  9994
2 62791  88.9809 105.5435 0015815  52.5694 307.6894 13.50973845 44216
QIANFAN-62              
1 62792U 25016H   25324.30141261  .00000091  00000+0  12253-3 0  9999
2 62792  88.9755 105.4236 0017197  52.5247 307.7465 13.50983791 44209
QIANFAN-63              
1 62793U 25016J   25324.25204865  .00000106  00000+0  14491-3 0  9997
2 62793  88.9762 105.3788 0017358  57.6162 302.6666 13.50976932 44239
QIANFAN-64              
1 62794U 25016K   25324.21906814  .00000100  00000+0  13602-3 0  9994
2 62794  88.9749 105.3593 0015168  51.7482 308.5031 13.50978769 44226
